{"type": "FeatureCollection", "features": [ {"type": "Feature", "properties": {"norad_id": 66599, "name": "STARLINK-35930", "group": "last-30-days", "lat": 36.48409136820725, "lon": -107.26800621176086, "alt_km": 409.77341728767715, "timestamp": "2025-12-11T10:53:14.620719+00:00", "meta": {"OBJECT_NAME": "STARLINK-35930", "OBJECT_ID": "2025-270M", "EPOCH": "2025-12-11T04:00:01.998720", "MEAN_MOTION": 15.50600305, "ECCENTRICITY": 9.44e-05, "INCLINATION": 42.9995, "RA_OF_ASC_NODE": 201.8845, "ARG_OF_PERICENTER": 314.8441, "MEAN_ANOMALY": 302.248, "EPHEMERIS_TYPE": 0, "CLASSIFICATION_TYPE": "U", "NORAD_CAT_ID": 66599, "ELEMENT_SET_NO": 999, "REV_AT_EPOCH": 414, "BSTAR": -0.0045917, "MEAN_MOTION_DOT": -0.00261114, "MEAN_MOTION_DDOT": 0}, "tle": {"line1": "1 66599U 25270M   25345.16668980 -.00261114  00000+0 -45917-2 0  9998", "line2": "2 66599  42.9995 201.8845 0000944 314.8441 302.2480 15.50600305  4148"}}, "geometry": {"type": "Point", "coordinates": [-107.26800621176086, 36.48409136820725]}}, {"type": "Feature", "properties": {"norad_id": 66600, "name": "STARLINK-35980", "group": "last-30-days", "lat": 37.23604218761548, "lon": -105.14921095488802, "alt_km": 410.6523159065273, "timestamp": "2025-12-11T10:53:14.620729+00:00", "meta": {"OBJECT_NAME": "STARLINK-35980", "OBJECT_ID": "2025-270N", "EPOCH": "2025-12-11T04:00:01.998720", "MEAN_MOTION": 15.50622135, "ECCENTRICITY": 0.0002366, "INCLINATION": 42.9997, "RA_OF_ASC_NODE": 201.8802, "ARG_OF_PERICENTER": 262.265, "MEAN_ANOMALY": 356.6128, "EPHEMERIS_TYPE": 0, "CLASSIFICATION_TYPE": "U", "NORAD_CAT_ID": 66600, "ELEMENT_SET_NO": 999, "REV_AT_EPOCH": 404, "BSTAR": -0.0018231, "MEAN_MOTION_DOT": -0.00106033, "MEAN_MOTION_DDOT": 0}, "tle": {"line1": "1 66600U 25270N   25345.16668980 -.00106033  00000+0 -18231-2 0  9998", "line2": "2 66600  42.9997 201.8802 0002366 262.2650 356.6128 15.50622135  4040"}}, "geometry": {"type": "Point", "coordinates": [-105.14921095488802, 37.23604218761548]}}, {"type": "Feature", "properties": {"norad_id": 66601, "name": "STARLINK-35978", "group": "last-30-days", "lat": 37.97312732746151, "lon": -102.91410024417529, "alt_km": 410.33576954230193, "timestamp": "2025-12-11T10:53:14.620739+00:00", "meta": {"OBJECT_NAME": "STARLINK-35978", "OBJECT_ID": "2025-270P", "EPOCH": "2025-12-11T04:00:01.998720", "MEAN_MOTION": 15.50629839, "ECCENTRICITY": 0.0001985, "INCLINATION": 42.9998, "RA_OF_ASC_NODE": 201.875, "ARG_OF_PERICENTER": 258.5891, "MEAN_ANOMALY": 2.2073, "EPHEMERIS_TYPE": 0, "CLASSIFICATION_TYPE": "U", "NORAD_CAT_ID": 66601, "ELEMENT_SET_NO": 999, "REV_AT_EPOCH": 398, "BSTAR": -0.0020263, "MEAN_MOTION_DOT": -0.00117668, "MEAN_MOTION_DDOT": 0}, "tle": {"line1": "1 66601U 25270P   25345.16668980 -.00117668  00000+0 -20263-2 0  9993", "line2": "2 66601  42.9998 201.8750 0001985 258.5891   2.2073 15.50629839  3988"}}, "geometry": {"type": "Point", "coordinates": [-102.91410024417529, 37.97312732746151]}}, {"type": "Feature", "properties": {"norad_id": 66602, "name": "STARLINK-36050", "group": "last-30-days", "lat": 38.66154224018935, "lon": -100.65172395505378, "alt_km": 410.3487844852698, "timestamp": "2025-12-11T10:53:14.620754+00:00", "meta": {"OBJECT_NAME": "STARLINK-36050", "OBJECT_ID": "2025-270Q", "EPOCH": "2025-12-11T04:00:01.998720", "MEAN_MOTION": 15.50701321, "ECCENTRICITY": 0.000189, "INCLINATION": 42.9998, "RA_OF_ASC_NODE": 201.871, "ARG_OF_PERICENTER": 258.6393, "MEAN_ANOMALY": 4.0533, "EPHEMERIS_TYPE": 0, "CLASSIFICATION_TYPE": "U", "NORAD_CAT_ID": 66602, "ELEMENT_SET_NO": 999, "REV_AT_EPOCH": 404, "BSTAR": -0.0057707, "MEAN_MOTION_DOT": -0.00326594, "MEAN_MOTION_DDOT": 0}, "tle": {"line1": "1 66602U 25270Q   25345.16668980 -.00326594  00000+0 -57707-2 0  9997", "line2": "2 66602  42.9998 201.8710 0001890 258.6393   4.0533 15.50701321  4044"}}, "geometry": {"type": "Point", "coordinates": [-100.65172395505378, 38.66154224018935]}}, {"type": "Feature", "properties": {"norad_id": 66603, "name": "STARLINK-36048", "group": "last-30-days", "lat": 39.30128403462643, "lon": -98.36247983353539, "alt_km": 409.9697174330131, "timestamp": "2025-12-11T10:53:14.620765+00:00", "meta": {"OBJECT_NAME": "STARLINK-36048", "OBJECT_ID": "2025-270R", "EPOCH": "2025-12-11T04:00:01.998720", "MEAN_MOTION": 15.50638019, "ECCENTRICITY": 0.0001778, "INCLINATION": 42.9996, "RA_OF_ASC_NODE": 201.866, "ARG_OF_PERICENTER": 241.7706, "MEAN_ANOMALY": 22.8148, "EPHEMERIS_TYPE": 0, "CLASSIFICATION_TYPE": "U", "NORAD_CAT_ID": 66603, "ELEMENT_SET_NO": 999, "REV_AT_EPOCH": 404, "BSTAR": -0.0016268, "MEAN_MOTION_DOT": -0.00094834, "MEAN_MOTION_DDOT": 0}, "tle": {"line1": "1 66603U 25270R   25345.16668980 -.00094834  00000+0 -16268-2 0  9994", "line2": "2 66603  42.9996 201.8660 0001778 241.7706  22.8148 15.50638019  4046"}}, "geometry": {"type": "Point", "coordinates": [-98.36247983353539, 39.30128403462643]}}, {"type": "Feature", "properties": {"norad_id": 66604, "name": "STARLINK-35977", "group": "last-30-days", "lat": 39.903971150799926, "lon": -95.99695783703204, "alt_km": 409.8262550024656, "timestamp": "2025-12-11T10:53:14.620775+00:00", "meta": {"OBJECT_NAME": "STARLINK-35977", "OBJECT_ID": "2025-270S", "EPOCH": "2025-12-11T04:00:01.998720", "MEAN_MOTION": 15.50642607, "ECCENTRICITY": 0.0001705, "INCLINATION": 42.9996, "RA_OF_ASC_NODE": 201.861, "ARG_OF_PERICENTER": 243.9885, "MEAN_ANOMALY": 22.5149, "EPHEMERIS_TYPE": 0, "CLASSIFICATION_TYPE": "U", "NORAD_CAT_ID": 66604, "ELEMENT_SET_NO": 999, "REV_AT_EPOCH": 414, "BSTAR": -0.0017542, "MEAN_MOTION_DOT": -0.00102154, "MEAN_MOTION_DDOT": 0}, "tle": {"line1": "1 66604U 25270S   25345.16668980 -.00102154  00000+0 -17542-2 0  9996", "line2": "2 66604  42.9996 201.8610 0001705 243.9885  22.5149 15.50642607  4141"}}, "geometry": {"type": "Point", "coordinates": [-95.99695783703204, 39.903971150799926]}}, {"type": "Feature", "properties": {"norad_id": 66605, "name": "STARLINK-36052", "group": "last-30-days", "lat": 40.46444764197352, "lon": -93.55965581866812, "alt_km": 410.01019463699595, "timestamp": "2025-12-11T10:53:14.620785+00:00", "meta": {"OBJECT_NAME": "STARLINK-36052", "OBJECT_ID": "2025-270T", "EPOCH": "2025-12-11T04:00:01.998720", "MEAN_MOTION": 15.50626119, "ECCENTRICITY": 0.0002023, "INCLINATION": 42.9996, "RA_OF_ASC_NODE": 201.8557, "ARG_OF_PERICENTER": 258.0333, "MEAN_ANOMALY": 10.4309, "EPHEMERIS_TYPE": 0, "CLASSIFICATION_TYPE": "U", "NORAD_CAT_ID": 66605, "ELEMENT_SET_NO": 999, "REV_AT_EPOCH": 414, "BSTAR": -0.001908, "MEAN_MOTION_DOT": -0.00110895, "MEAN_MOTION_DDOT": 0}, "tle": {"line1": "1 66605U 25270T   25345.16668980 -.00110895  00000+0 -19080-2 0  9997", "line2": "2 66605  42.9996 201.8557 0002023 258.0333  10.4309 15.50626119  4145"}}, "geometry": {"type": "Point", "coordinates": [-93.55965581866812, 40.46444764197352]}}, {"type": "Feature", "properties": {"norad_id": 66606, "name": "STARLINK-36063", "group": "last-30-days", "lat": 41.40913525755552, "lon": -88.6760748651283, "alt_km": 409.5683454639029, "timestamp": "2025-12-11T10:53:14.620796+00:00", "meta": {"OBJECT_NAME": "STARLINK-36063", "OBJECT_ID": "2025-270U", "EPOCH": "2025-12-11T04:00:01.998720", "MEAN_MOTION": 15.50647196, "ECCENTRICITY": 0.0001682, "INCLINATION": 42.9998, "RA_OF_ASC_NODE": 201.8458, "ARG_OF_PERICENTER": 244.7792, "MEAN_ANOMALY": 27.4794, "EPHEMERIS_TYPE": 0, "CLASSIFICATION_TYPE": "U", "NORAD_CAT_ID": 66606, "ELEMENT_SET_NO": 999, "REV_AT_EPOCH": 414, "BSTAR": -0.0019137, "MEAN_MOTION_DOT": -0.00111303, "MEAN_MOTION_DDOT": 0}, "tle": {"line1": "1 66606U 25270U   25345.16668980 -.00111303  00000+0 -19137-2 0  9996", "line2": "2 66606  42.9998 201.8458 0001682 244.7792  27.4794 15.50647196  4143"}}, "geometry": {"type": "Point", "coordinates": [-88.6760748651283, 41.40913525755552]}}, {"type": "Feature", "properties": {"norad_id": 66607, "name": "STARLINK-35993", "group": "last-30-days", "lat": 40.965585869122805, "lon": -91.1192216572234, "alt_km": 409.8973866128599, "timestamp": "2025-12-11T10:53:14.620808+00:00", "meta": {"OBJECT_NAME": "STARLINK-35993", "OBJECT_ID": "2025-270V", "EPOCH": "2025-12-11T04:00:01.998720", "MEAN_MOTION": 15.50631657, "ECCENTRICITY": 0.0001959, "INCLINATION": 42.9996, "RA_OF_ASC_NODE": 201.8512, "ARG_OF_PERICENTER": 257.9445, "MEAN_ANOMALY": 12.4351, "EPHEMERIS_TYPE": 0, "CLASSIFICATION_TYPE": "U", "NORAD_CAT_ID": 66607, "ELEMENT_SET_NO": 999, "REV_AT_EPOCH": 404, "BSTAR": -0.0020905, "MEAN_MOTION_DOT": -0.00121333, "MEAN_MOTION_DDOT": 0}, "tle": {"line1": "1 66607U 25270V   25345.16668980 -.00121333  00000+0 -20905-2 0  9996", "line2": "2 66607  42.9996 201.8512 0001959 257.9445  12.4351 15.50631657  4048"}}, "geometry": {"type": "Point", "coordinates": [-91.1192216572234, 40.965585869122805]}}, {"type": "Feature", "properties": {"norad_id": 66608, "name": "STARLINK-36036", "group": "last-30-days", "lat": 41.802283588065734, "lon": -86.18323487458426, "alt_km": 409.5390778216697, "timestamp": "2025-12-11T10:53:14.620819+00:00", "meta": {"OBJECT_NAME": "STARLINK-36036", "OBJECT_ID": "2025-270W", "EPOCH": "2025-12-11T04:00:01.998720", "MEAN_MOTION": 15.50632682, "ECCENTRICITY": 0.000174, "INCLINATION": 42.9998, "RA_OF_ASC_NODE": 201.842, "ARG_OF_PERICENTER": 244.3963, "MEAN_ANOMALY": 29.7762, "EPHEMERIS_TYPE": 0, "CLASSIFICATION_TYPE": "U", "NORAD_CAT_ID": 66608, "ELEMENT_SET_NO": 999, "REV_AT_EPOCH": 398, "BSTAR": -0.0015054, "MEAN_MOTION_DOT": -0.00087839, "MEAN_MOTION_DDOT": 0}, "tle": {"line1": "1 66608U 25270W   25345.16668980 -.00087839  00000+0 -15054-2 0  9998", "line2": "2 66608  42.9998 201.8420 0001740 244.3963  29.7762 15.50632682  3980"}}, "geometry": {"type": "Point", "coordinates": [-86.18323487458426, 41.802283588065734]}}]}